ONEWEB-0092             
1 45437U 20020P   25220.58339272 -.00000452  00000+0 -13117-2 0  9994
2 45437  87.8798  83.3626 0001612  89.8779 270.2534 13.11417939261818
ONEWEB-0085             
1 45438U 20020Q   25220.61322780 -.00017420  00000+0 -49616-1 0  9990
2 45438  87.8787  83.3700 0001813  83.9296 276.2038 13.10950497261705
ONEWEB-0096             
1 45439U 20020R   25220.62155794  .00000332  00000+0  90003-3 0  9991
2 45439  87.8806  83.3355 0001936  80.9378 279.1969 13.11414086261691
ONEWEB-0037             
1 45440U 20020S   25220.60206960  .00000483  00000+0  13281-2 0  9992
2 45440  87.8811  83.3040 0001681  84.2872 275.8448 13.11417777261722
ONEWEB-0042             
1 45441U 20020T   25220.61122174  .00000556  00000+0  15337-2 0  9993
2 45441  87.8800  83.3464 0001751  84.8095 275.3233 13.11419631261696
ONEWEB-0098             
1 45442U 20020U   25220.60715403  .00000571  00000+0  15741-2 0  9992
2 45442  87.8800  83.3574 0001644  72.7110 287.4198 13.11416515261674
ONEWEB-0055             
1 45443U 20020V   25220.59018637  .00000040  00000+0  77623-4 0  9996
2 45443  87.8794  83.3625 0001710  79.2057 280.9264 13.11419744261646
ONEWEB-0093             
1 45444U 20020W   25220.56573683 -.00000432  00000+0 -12544-2 0  9997
2 45444  87.8797  83.3522 0002120  89.7674 270.3697 13.11415949261706
ONEWEB-0029             
1 45445U 20020X   25220.58170229 -.00000428  00000+0 -12443-2 0  9992
2 45445  87.8802  83.3612 0001880  81.9530 278.1811 13.11418531261682
ONEWEB-0068             
1 45446U 20020Y   25220.56544791 -.00000444  00000+0 -12882-2 0  9995
2 45446  87.8797  83.3531 0001916  81.7314 278.4031 13.11417452261626
ONEWEB-0046             
1 45447U 20020Z   25220.55712396 -.00000262  00000+0 -77582-3 0  9990
2 45447  87.8797  83.3649 0001830  89.4777 270.6561 13.11414509261633
ONEWEB-0063             
1 45448U 20020AA  25220.58594026 -.00000349  00000+0 -10215-2 0  9997
2 45448  87.8802  83.3573 0001638  88.7545 271.3771 13.11418432261728
ONEWEB-0019             
1 45449U 20020AB  25220.55966288 -.00000287  00000+0 -84570-3 0  9995
2 45449  87.8796  83.3800 0001778  79.3379 280.7949 13.11413899261565
ONEWEB-0094             
1 45450U 20020AC  25220.57611260  .00000006  00000+0 -16642-4 0  9990
2 45450  87.9029  68.0474 0001835  87.1997 272.9344 13.17648151265148
ONEWEB-0087             
1 45451U 20020AD  25220.59598015  .00000301  00000+0  81457-3 0  9997
2 45451  87.8797  83.3055 0001990  83.1772 276.9582 13.11419858261614
ONEWEB-0082             
1 45452U 20020AE  25220.59273940  .00000109  00000+0  27151-3 0  9992
2 45452  87.8801  83.3311 0002010  78.0484 282.0869 13.11417421261703
ONEWEB-0050             
1 45453U 20020AF  25220.60520957  .00002091  00000+0  20963-3 0  9994
2 45453  87.9968 282.0472 0004043  57.3461 302.8157 14.90911927293847
