[{"OBJECT_NAME":"ONEWEB-0092","OBJECT_ID":"2020-020P","EPOCH":"2025-08-08T14:00:05.131008","MEAN_MOTION":13.11417939,"ECCENTRICITY":0.0001612,"INCLINATION":87.8798,"RA_OF_ASC_NODE":83.3626,"ARG_OF_PERICENTER":89.8779,"MEAN_ANOMALY":270.2534,"EPHEMERIS_TYPE":0,"CLASSIFICATION_TYPE":"U","NORAD_CAT_ID":45437,"ELEMENT_SET_NO":999,"REV_AT_EPOCH":26181,"BSTAR":-0.0013117,"MEAN_MOTION_DOT":-4.52e-6,"MEAN_MOTION_DDOT":0},{"OBJECT_NAME":"ONEWEB-0085","OBJECT_ID":"2020-020Q","EPOCH":"2025-08-08T14:43:02.881920","MEAN_MOTION":13.10950497,"ECCENTRICITY":0.0001813,"INCLINATION":87.8787,"RA_OF_ASC_NODE":83.37,"ARG_OF_PERICENTER":83.9296,"MEAN_ANOMALY":276.2038,"EPHEMERIS_TYPE":0,"CLASSIFICATION_TYPE":"U","NORAD_CAT_ID":45438,"ELEMENT_SET_NO":999,"REV_AT_EPOCH":26170,"BSTAR":-0.049616,"MEAN_MOTION_DOT":-0.0001742,"MEAN_MOTION_DDOT":0},{"OBJECT_NAME":"ONEWEB-0096","OBJECT_ID":"2020-020R","EPOCH":"2025-08-08T14:55:02.606016","MEAN_MOTION":13.11414086,"ECCENTRICITY":0.0001936,"INCLINATION":87.8806,"RA_OF_ASC_NODE":83.3355,"ARG_OF_PERICENTER":80.9378,"MEAN_ANOMALY":279.1969,"EPHEMERIS_TYPE":0,"CLASSIFICATION_TYPE":"U","NORAD_CAT_ID":45439,"ELEMENT_SET_NO":999,"REV_AT_EPOCH":26169,"BSTAR":0.00090003,"MEAN_MOTION_DOT":3.32e-6,"MEAN_MOTION_DDOT":0},{"OBJECT_NAME":"ONEWEB-0037","OBJECT_ID":"2020-020S","EPOCH":"2025-08-08T14:26:58.813440","MEAN_MOTION":13.11417777,"ECCENTRICITY":0.0001681,"INCLINATION":87.8811,"RA_OF_ASC_NODE":83.304,"ARG_OF_PERICENTER":84.2872,"MEAN_ANOMALY":275.8448,"EPHEMERIS_TYPE":0,"CLASSIFICATION_TYPE":"U","NORAD_CAT_ID":45440,"ELEMENT_SET_NO":999,"REV_AT_EPOCH":26172,"BSTAR":0.0013281,"MEAN_MOTION_DOT":4.83e-6,"MEAN_MOTION_DDOT":0},{"OBJECT_NAME":"ONEWEB-0042","OBJECT_ID":"2020-020T","EPOCH":"2025-08-08T14:40:09.558336","MEAN_MOTION":13.11419631,"ECCENTRICITY":0.0001751,"INCLINATION":87.88,"RA_OF_ASC_NODE":83.3464,"ARG_OF_PERICENTER":84.8095,"MEAN_ANOMALY":275.3233,"EPHEMERIS_TYPE":0,"CLASSIFICATION_TYPE":"U","NORAD_CAT_ID":45441,"ELEMENT_SET_NO":999,"REV_AT_EPOCH":26169,"BSTAR":0.0015337,"MEAN_MOTION_DOT":5.56e-6,"MEAN_MOTION_DDOT":0},{"OBJECT_NAME":"ONEWEB-0098","OBJECT_ID":"2020-020U","EPOCH":"2025-08-08T14:34:18.108192","MEAN_MOTION":13.11416515,"ECCENTRICITY":0.0001644,"INCLINATION":87.88,"RA_OF_ASC_NODE":83.3574,"ARG_OF_PERICENTER":72.711,"MEAN_ANOMALY":287.4198,"EPHEMERIS_TYPE":0,"CLASSIFICATION_TYPE":"U","NORAD_CAT_ID":45442,"ELEMENT_SET_NO":999,"REV_AT_EPOCH":26167,"BSTAR":0.0015741,"MEAN_MOTION_DOT":5.71e-6,"MEAN_MOTION_DDOT":0},{"OBJECT_NAME":"ONEWEB-0055","OBJECT_ID":"2020-020V","EPOCH":"2025-08-08T14:09:52.102368","MEAN_MOTION":13.11419744,"ECCENTRICITY":0.000171,"INCLINATION":87.8794,"RA_OF_ASC_NODE":83.3625,"ARG_OF_PERICENTER":79.2057,"MEAN_ANOMALY":280.9264,"EPHEMERIS_TYPE":0,"CLASSIFICATION_TYPE":"U","NORAD_CAT_ID":45443,"ELEMENT_SET_NO":999,"REV_AT_EPOCH":26164,"BSTAR":7.7623e-5,"MEAN_MOTION_DOT":4.0e-7,"MEAN_MOTION_DDOT":0},{"OBJECT_NAME":"ONEWEB-0093","OBJECT_ID":"2020-020W","EPOCH":"2025-08-08T13:34:39.662112","MEAN_MOTION":13.11415949,"ECCENTRICITY":0.000212,"INCLINATION":87.8797,"RA_OF_ASC_NODE":83.3522,"ARG_OF_PERICENTER":89.7674,"MEAN_ANOMALY":270.3697,"EPHEMERIS_TYPE":0,"CLASSIFICATION_TYPE":"U","NORAD_CAT_ID":45444,"ELEMENT_SET_NO":999,"REV_AT_EPOCH":26170,"BSTAR":-0.0012544,"MEAN_MOTION_DOT":-4.32e-6,"MEAN_MOTION_DDOT":0},{"OBJECT_NAME":"ONEWEB-0029","OBJECT_ID":"2020-020X","EPOCH":"2025-08-08T13:57:39.077856","MEAN_MOTION":13.11418531,"ECCENTRICITY":0.000188,"INCLINATION":87.8802,"RA_OF_ASC_NODE":83.3612,"ARG_OF_PERICENTER":81.953,"MEAN_ANOMALY":278.1811,"EPHEMERIS_TYPE":0,"CLASSIFICATION_TYPE":"U","NORAD_CAT_ID":45445,"ELEMENT_SET_NO":999,"REV_AT_EPOCH":26168,"BSTAR":-0.0012443,"MEAN_MOTION_DOT":-4.28e-6,"MEAN_MOTION_DDOT":0},{"OBJECT_NAME":"ONEWEB-0068","OBJECT_ID":"2020-020Y","EPOCH":"2025-08-08T13:34:14.699424","MEAN_MOTION":13.11417452,"ECCENTRICITY":0.0001916,"INCLINATION":87.8797,"RA_OF_ASC_NODE":83.3531,"ARG_OF_PERICENTER":81.7314,"MEAN_ANOMALY":278.4031,"EPHEMERIS_TYPE":0,"CLASSIFICATION_TYPE":"U","NORAD_CAT_ID":45446,"ELEMENT_SET_NO":999,"REV_AT_EPOCH":26162,"BSTAR":-0.0012882,"MEAN_MOTION_DOT":-4.44e-6,"MEAN_MOTION_DDOT":0},{"OBJECT_NAME":"ONEWEB-0046","OBJECT_ID":"2020-020Z","EPOCH":"2025-08-08T13:22:15.510144","MEAN_MOTION":13.11414509,"ECCENTRICITY":0.000183,"INCLINATION":87.8797,"RA_OF_ASC_NODE":83.3649,"ARG_OF_PERICENTER":89.4777,"MEAN_ANOMALY":270.6561,"EPHEMERIS_TYPE":0,"CLASSIFICATION_TYPE":"U","NORAD_CAT_ID":45447,"ELEMENT_SET_NO":999,"REV_AT_EPOCH":26163,"BSTAR":-0.00077582,"MEAN_MOTION_DOT":-2.62e-6,"MEAN_MOTION_DDOT":0},{"OBJECT_NAME":"ONEWEB-0063","OBJECT_ID":"2020-020AA","EPOCH":"2025-08-08T14:03:45.238464","MEAN_MOTION":13.11418432,"ECCENTRICITY":0.0001638,"INCLINATION":87.8802,"RA_OF_ASC_NODE":83.3573,"ARG_OF_PERICENTER":88.7545,"MEAN_ANOMALY":271.3771,"EPHEMERIS_TYPE":0,"CLASSIFICATION_TYPE":"U","NORAD_CAT_ID":45448,"ELEMENT_SET_NO":999,"REV_AT_EPOCH":26172,"BSTAR":-0.0010215,"MEAN_MOTION_DOT":-3.49e-6,"MEAN_MOTION_DDOT":0},{"OBJECT_NAME":"ONEWEB-0019","OBJECT_ID":"2020-020AB","EPOCH":"2025-08-08T13:25:54.872832","MEAN_MOTION":13.11413899,"ECCENTRICITY":0.0001778,"INCLINATION":87.8796,"RA_OF_ASC_NODE":83.38,"ARG_OF_PERICENTER":79.3379,"MEAN_ANOMALY":280.7949,"EPHEMERIS_TYPE":0,"CLASSIFICATION_TYPE":"U","NORAD_CAT_ID":45449,"ELEMENT_SET_NO":999,"REV_AT_EPOCH":26156,"BSTAR":-0.0008457,"MEAN_MOTION_DOT":-2.87e-6,"MEAN_MOTION_DDOT":0},{"OBJECT_NAME":"ONEWEB-0094","OBJECT_ID":"2020-020AC","EPOCH":"2025-08-08T13:49:36.128640","MEAN_MOTION":13.17648151,"ECCENTRICITY":0.0001835,"INCLINATION":87.9029,"RA_OF_ASC_NODE":68.0474,"ARG_OF_PERICENTER":87.1997,"MEAN_ANOMALY":272.9344,"EPHEMERIS_TYPE":0,"CLASSIFICATION_TYPE":"U","NORAD_CAT_ID":45450,"ELEMENT_SET_NO":999,"REV_AT_EPOCH":26514,"BSTAR":-1.6642e-5,"MEAN_MOTION_DOT":6.0e-8,"MEAN_MOTION_DDOT":0},{"OBJECT_NAME":"ONEWEB-0087","OBJECT_ID":"2020-020AD","EPOCH":"2025-08-08T14:18:12.684960","MEAN_MOTION":13.11419858,"ECCENTRICITY":0.000199,"INCLINATION":87.8797,"RA_OF_ASC_NODE":83.3055,"ARG_OF_PERICENTER":83.1772,"MEAN_ANOMALY":276.9582,"EPHEMERIS_TYPE":0,"CLASSIFICATION_TYPE":"U","NORAD_CAT_ID":45451,"ELEMENT_SET_NO":999,"REV_AT_EPOCH":26161,"BSTAR":0.00081457,"MEAN_MOTION_DOT":3.01e-6,"MEAN_MOTION_DDOT":0},{"OBJECT_NAME":"ONEWEB-0082","OBJECT_ID":"2020-020AE","EPOCH":"2025-08-08T14:13:32.684160","MEAN_MOTION":13.11417421,"ECCENTRICITY":0.000201,"INCLINATION":87.8801,"RA_OF_ASC_NODE":83.3311,"ARG_OF_PERICENTER":78.0484,"MEAN_ANOMALY":282.0869,"EPHEMERIS_TYPE":0,"CLASSIFICATION_TYPE":"U","NORAD_CAT_ID":45452,"ELEMENT_SET_NO":999,"REV_AT_EPOCH":26170,"BSTAR":0.00027151,"MEAN_MOTION_DOT":1.09e-6,"MEAN_MOTION_DDOT":0},{"OBJECT_NAME":"ONEWEB-0050","OBJECT_ID":"2020-020AF","EPOCH":"2025-08-08T14:31:30.106848","MEAN_MOTION":14.90911927,"ECCENTRICITY":0.0004043,"INCLINATION":87.9968,"RA_OF_ASC_NODE":282.0472,"ARG_OF_PERICENTER":57.3461,"MEAN_ANOMALY":302.8157,"EPHEMERIS_TYPE":0,"CLASSIFICATION_TYPE":"U","NORAD_CAT_ID":45453,"ELEMENT_SET_NO":999,"REV_AT_EPOCH":29384,"BSTAR":0.00020963,"MEAN_MOTION_DOT":2.091e-5,"MEAN_MOTION_DDOT":0}]
